GLOBALSTAR M045 [-]     
1 25676U 99019A   23315.06834157 -.00000024  00000+0  61603-3 0  9997
2 25676  51.9949 170.0746 0001685 100.3564  65.5631 12.27019085121688
GLOBALSTAR M019 [-]     
1 25677U 99019B   23315.55706811 -.00000207  00000+0 -12172-2 0  9997
2 25677  51.9881 257.9936 0000327 190.3163 340.8296 12.13846889114263
GLOBALSTAR M044 [-]     
1 25678U 99019C   23315.52046520 -.00000050  00000+0  47370-3 0  9993
2 25678  51.9940 136.4376 0006323   3.7187  30.4013 11.90226954101820
GLOBALSTAR M042 [-]     
1 25679U 99019D   23315.59537571 -.00000048  00000+0  41245-3 0  9994
2 25679  52.0015 258.4004 0002707 165.6370   6.0567 12.22050915113906
GLOBALSTAR M025 [-]     
1 25770U 99031A   23315.60019763 -.00000075  00000+0 -21721-3 0  9998
2 25770  51.9820  71.1780 0000917 206.0494 166.6656 11.22547033416177
GLOBALSTAR M049 [-]     
1 25771U 99031B   23315.56347931 -.00000131  00000+0 -22810-2 0  9997
2 25771  51.9873  76.6950 0003711 115.0657 245.0525 11.12102627 52493
GLOBALSTAR M047 [-]     
1 25772U 99031C   23315.60970392 -.00000055  00000+0  39679-3 0  9992
2 25772  51.9799 129.3156 0015845 344.8946  15.1385 11.31917293405024
GLOBALSTAR M052 [-]     
1 25773U 99031D   23315.39850279 -.00000038  00000+0  93486-3 0  9997
2 25773  51.9846 193.9560 0001652 310.4939 220.1887 11.15047135413380
